IRIDIUM 106             
1 41917U 17003A   24352.87774878  .00000679  00000+0  23556-3 0  9990
2 41917  86.3962 316.8231 0001923  89.6625 270.4791 14.34217241414900
IRIDIUM 103             
1 41918U 17003B   24352.86507156  .00000249  00000+0  81813-4 0  9997
2 41918  86.3963 316.7293 0002086  67.3176 292.8240 14.34218282414929
IRIDIUM 109             
1 41919U 17003C   24352.87141382  .00000303  00000+0  10120-3 0  9997
2 41919  86.3964 316.7771 0002421  83.2386 276.9085 14.34217893414898
IRIDIUM 102             
1 41920U 17003D   24352.35132123  .00000606  00000+0  20938-3 0  9999
2 41920  86.3960 316.9294 0002279  88.5723 271.5734 14.34222087414907
IRIDIUM 105             
1 41921U 17003E   24352.88020916  .00000440  00000+0  14987-3 0  9997
2 41921  86.3965 285.1288 0002028  84.9423 275.2004 14.34220186416835
IRIDIUM 104             
1 41922U 17003F   24352.85238530  .00000618  00000+0  21359-3 0  9996
2 41922  86.3962 316.7542 0002705  78.6737 281.4762 14.34219848414962
IRIDIUM 114             
1 41923U 17003G   24352.85872712  .00000574  00000+0  19789-3 0  9998
2 41923  86.3961 316.7367 0002179  80.4656 279.6786 14.34217056414945
IRIDIUM 108             
1 41924U 17003H   24352.88701760  .00000169  00000+0  53240-4 0  9997
2 41924  86.3960 285.0388 0001990  87.9424 272.2000 14.34218913416809
